ONEWEB-0035             
1 45143U 20008N   26023.53879763 -.00000086  00000+0 -28151-3 0  9993
2 45143  87.8769  65.1136 0001726  99.5176 260.6147 13.10377000288993
ONEWEB-0036             
1 45144U 20008P   26023.37610872 -.00000510  00000+0 -14985-2 0  9991
2 45144  87.8775  65.1080 0002112  91.9404 268.1966 13.10373428289408
ONEWEB-0038             
1 45145U 20008Q   26023.51020414  .00000413  00000+0  11287-2 0  9997
2 45145  87.8826  49.8593 0000980  25.2258 334.8918 13.11417124291361
ONEWEB-0039             
1 45146U 20008R   26023.51140707 -.00000375  00000+0 -11102-2 0  9991
2 45146  87.8772  65.0986 0002088  83.9922 276.1443 13.10370648289218
ONEWEB-0040             
1 45147U 20008S   26023.50477058 -.00000067  00000+0 -22711-3 0  9990
2 45147  87.8758  65.1208 0001756  96.3811 263.7517 13.10369421288914
ONEWEB-0043             
1 45149U 20008U   26023.58278849 -.00000251  00000+0 -75557-3 0  9998
2 45149  87.8763  65.0868 0002167  84.7109 275.4266 13.10368714289243
ONEWEB-0044             
1 45150U 20008V   26023.53464789 -.00000387  00000+0 -11442-2 0  9997
2 45150  87.8776  65.0899 0002004  91.1423 268.9934 13.10375721289531
ONEWEB-0045             
1 45151U 20008W   26023.50497670  .00000278  00000+0  74905-3 0  9991
2 45151  87.8832  49.8461 0001816  88.1320 272.0016 13.11417216291449
ONEWEB-0047             
1 45152U 20008X   26023.37529219 -.00000530  00000+0 -15553-2 0  9998
2 45152  87.8765  65.1285 0001857  92.4586 267.6754 13.10367333289233
ONEWEB-0048             
1 45153U 20008Y   26023.52302571 -.00000657  00000+0 -19199-2 0  9996
2 45153  87.8760  65.1264 0001738  98.1989 261.9335 13.10373645288867
ONEWEB-0049             
1 45154U 20008Z   26023.37348902 -.00000569  00000+0 -16675-2 0  9996
2 45154  87.8762  65.1448 0002307  98.3069 261.8320 13.10374379289069
ONEWEB-0051             
1 45155U 20008AA  26023.50328151  .00000208  00000+0  54976-3 0  9991
2 45155  87.8822  49.8615 0001815  92.1665 267.9671 13.11418431292125
ONEWEB-0052             
1 45156U 20008AB  26023.52052858 -.00000619  00000+0 -18083-2 0  9998
2 45156  87.8771  65.0798 0002333  97.3782 262.7611 13.10371522288999
ONEWEB-0053             
1 45157U 20008AC  26023.57948177  .00000028  00000+0  44101-4 0  9996
2 45157  87.8760  65.1114 0001750  86.1398 273.9930 13.10371705288971
ONEWEB-0054             
1 45158U 20008AD  26023.53796124 -.00000115  00000+0 -36493-3 0  9999
2 45158  87.8774  65.0921 0001901  98.0326 262.1017 13.10377273289088
ONEWEB-0056             
1 45159U 20008AE  26023.51886663 -.00000626  00000+0 -18300-2 0  9999
2 45159  87.8769  65.0955 0001997 101.5078 258.6274 13.10371154289233
ONEWEB-0057             
1 45160U 20008AF  26023.52648344 -.00000572  00000+0 -16741-2 0  9991
2 45160  87.8766  65.1058 0002023  93.1699 266.9660 13.10374418289409
