[{"OBJECT_NAME":"ONEWEB-0035","OBJECT_ID":"2020-008N","EPOCH":"2026-01-23T12:55:52.115232","MEAN_MOTION":13.10377,"ECCENTRICITY":0.00017263,"INCLINATION":87.8769,"RA_OF_ASC_NODE":65.1136,"ARG_OF_PERICENTER":99.5176,"MEAN_ANOMALY":260.6147,"EPHEMERIS_TYPE":0,"CLASSIFICATION_TYPE":"U","NORAD_CAT_ID":45143,"ELEMENT_SET_NO":999,"REV_AT_EPOCH":28899,"BSTAR":-0.00028151036,"MEAN_MOTION_DOT":-8.6e-7,"MEAN_MOTION_DDOT":0},{"OBJECT_NAME":"ONEWEB-0036","OBJECT_ID":"2020-008P","EPOCH":"2026-01-23T09:01:35.793408","MEAN_MOTION":13.10373428,"ECCENTRICITY":0.0002112,"INCLINATION":87.8775,"RA_OF_ASC_NODE":65.108,"ARG_OF_PERICENTER":91.9404,"MEAN_ANOMALY":268.1966,"EPHEMERIS_TYPE":0,"CLASSIFICATION_TYPE":"U","NORAD_CAT_ID":45144,"ELEMENT_SET_NO":999,"REV_AT_EPOCH":28940,"BSTAR":-0.0014984761,"MEAN_MOTION_DOT":-5.1e-6,"MEAN_MOTION_DDOT":0},{"OBJECT_NAME":"ONEWEB-0038","OBJECT_ID":"2020-008Q","EPOCH":"2026-01-23T12:14:41.637696","MEAN_MOTION":13.11417124,"ECCENTRICITY":9.8e-5,"INCLINATION":87.8826,"RA_OF_ASC_NODE":49.8593,"ARG_OF_PERICENTER":25.2258,"MEAN_ANOMALY":334.8918,"EPHEMERIS_TYPE":0,"CLASSIFICATION_TYPE":"U","NORAD_CAT_ID":45145,"ELEMENT_SET_NO":999,"REV_AT_EPOCH":29136,"BSTAR":0.0011287352,"MEAN_MOTION_DOT":4.13e-6,"MEAN_MOTION_DDOT":0},{"OBJECT_NAME":"ONEWEB-0039","OBJECT_ID":"2020-008R","EPOCH":"2026-01-23T12:16:25.570848","MEAN_MOTION":13.10370648,"ECCENTRICITY":0.0002088,"INCLINATION":87.8772,"RA_OF_ASC_NODE":65.0986,"ARG_OF_PERICENTER":83.9922,"MEAN_ANOMALY":276.1443,"EPHEMERIS_TYPE":0,"CLASSIFICATION_TYPE":"U","NORAD_CAT_ID":45146,"ELEMENT_SET_NO":999,"REV_AT_EPOCH":28921,"BSTAR":-0.0011102286,"MEAN_MOTION_DOT":-3.75e-6,"MEAN_MOTION_DDOT":0},{"OBJECT_NAME":"ONEWEB-0040","OBJECT_ID":"2020-008S","EPOCH":"2026-01-23T12:06:52.178112","MEAN_MOTION":13.10369421,"ECCENTRICITY":0.00017566,"INCLINATION":87.8758,"RA_OF_ASC_NODE":65.1208,"ARG_OF_PERICENTER":96.3811,"MEAN_ANOMALY":263.7517,"EPHEMERIS_TYPE":0,"CLASSIFICATION_TYPE":"U","NORAD_CAT_ID":45147,"ELEMENT_SET_NO":999,"REV_AT_EPOCH":28891,"BSTAR":-0.00022711111,"MEAN_MOTION_DOT":-6.7e-7,"MEAN_MOTION_DDOT":0},{"OBJECT_NAME":"ONEWEB-0043","OBJECT_ID":"2020-008U","EPOCH":"2026-01-23T13:59:12.925536","MEAN_MOTION":13.10368714,"ECCENTRICITY":0.00021671,"INCLINATION":87.8763,"RA_OF_ASC_NODE":65.0868,"ARG_OF_PERICENTER":84.7109,"MEAN_ANOMALY":275.4266,"EPHEMERIS_TYPE":0,"CLASSIFICATION_TYPE":"U","NORAD_CAT_ID":45149,"ELEMENT_SET_NO":999,"REV_AT_EPOCH":28924,"BSTAR":-0.00075556907,"MEAN_MOTION_DOT":-2.51e-6,"MEAN_MOTION_DDOT":0},{"OBJECT_NAME":"ONEWEB-0044","OBJECT_ID":"2020-008V","EPOCH":"2026-01-23T12:49:53.577696","MEAN_MOTION":13.10375721,"ECCENTRICITY":0.00020046,"INCLINATION":87.8776,"RA_OF_ASC_NODE":65.0899,"ARG_OF_PERICENTER":91.1423,"MEAN_ANOMALY":268.9934,"EPHEMERIS_TYPE":0,"CLASSIFICATION_TYPE":"U","NORAD_CAT_ID":45150,"ELEMENT_SET_NO":999,"REV_AT_EPOCH":28953,"BSTAR":-0.0011441967,"MEAN_MOTION_DOT":-3.87e-6,"MEAN_MOTION_DDOT":0},{"OBJECT_NAME":"ONEWEB-0045","OBJECT_ID":"2020-008W","EPOCH":"2026-01-23T12:07:09.986880","MEAN_MOTION":13.11417216,"ECCENTRICITY":0.00018164,"INCLINATION":87.8832,"RA_OF_ASC_NODE":49.8461,"ARG_OF_PERICENTER":88.132,"MEAN_ANOMALY":272.0016,"EPHEMERIS_TYPE":0,"CLASSIFICATION_TYPE":"U","NORAD_CAT_ID":45151,"ELEMENT_SET_NO":999,"REV_AT_EPOCH":29144,"BSTAR":0.0007490521,"MEAN_MOTION_DOT":2.78e-6,"MEAN_MOTION_DDOT":0},{"OBJECT_NAME":"ONEWEB-0047","OBJECT_ID":"2020-008X","EPOCH":"2026-01-23T09:00:25.245216","MEAN_MOTION":13.10367333,"ECCENTRICITY":0.00018578,"INCLINATION":87.8765,"RA_OF_ASC_NODE":65.1285,"ARG_OF_PERICENTER":92.4586,"MEAN_ANOMALY":267.6754,"EPHEMERIS_TYPE":0,"CLASSIFICATION_TYPE":"U","NORAD_CAT_ID":45152,"ELEMENT_SET_NO":999,"REV_AT_EPOCH":28923,"BSTAR":-0.0015553103,"MEAN_MOTION_DOT":-5.3e-6,"MEAN_MOTION_DDOT":0},{"OBJECT_NAME":"ONEWEB-0048","OBJECT_ID":"2020-008Y","EPOCH":"2026-01-23T12:33:09.421344","MEAN_MOTION":13.10373645,"ECCENTRICITY":0.00017386,"INCLINATION":87.876,"RA_OF_ASC_NODE":65.1264,"ARG_OF_PERICENTER":98.1989,"MEAN_ANOMALY":261.9335,"EPHEMERIS_TYPE":0,"CLASSIFICATION_TYPE":"U","NORAD_CAT_ID":45153,"ELEMENT_SET_NO":999,"REV_AT_EPOCH":28886,"BSTAR":-0.001919912,"MEAN_MOTION_DOT":-6.57e-6,"MEAN_MOTION_DDOT":0},{"OBJECT_NAME":"ONEWEB-0049","OBJECT_ID":"2020-008Z","EPOCH":"2026-01-23T08:57:49.451328","MEAN_MOTION":13.10374379,"ECCENTRICITY":0.00023072,"INCLINATION":87.8762,"RA_OF_ASC_NODE":65.1448,"ARG_OF_PERICENTER":98.3069,"MEAN_ANOMALY":261.832,"EPHEMERIS_TYPE":0,"CLASSIFICATION_TYPE":"U","NORAD_CAT_ID":45154,"ELEMENT_SET_NO":999,"REV_AT_EPOCH":28906,"BSTAR":-0.0016675326,"MEAN_MOTION_DOT":-5.69e-6,"MEAN_MOTION_DDOT":0},{"OBJECT_NAME":"ONEWEB-0051","OBJECT_ID":"2020-008AA","EPOCH":"2026-01-23T12:04:43.522464","MEAN_MOTION":13.11418431,"ECCENTRICITY":0.00018155,"INCLINATION":87.8822,"RA_OF_ASC_NODE":49.8615,"ARG_OF_PERICENTER":92.1665,"MEAN_ANOMALY":267.9671,"EPHEMERIS_TYPE":0,"CLASSIFICATION_TYPE":"U","NORAD_CAT_ID":45155,"ELEMENT_SET_NO":999,"REV_AT_EPOCH":29212,"BSTAR":0.00054976189,"MEAN_MOTION_DOT":2.08e-6,"MEAN_MOTION_DDOT":0},{"OBJECT_NAME":"ONEWEB-0052","OBJECT_ID":"2020-008AB","EPOCH":"2026-01-23T12:29:33.669312","MEAN_MOTION":13.10371522,"ECCENTRICITY":0.00023332,"INCLINATION":87.8771,"RA_OF_ASC_NODE":65.0798,"ARG_OF_PERICENTER":97.3782,"MEAN_ANOMALY":262.7611,"EPHEMERIS_TYPE":0,"CLASSIFICATION_TYPE":"U","NORAD_CAT_ID":45156,"ELEMENT_SET_NO":999,"REV_AT_EPOCH":28899,"BSTAR":-0.0018083413,"MEAN_MOTION_DOT":-6.19e-6,"MEAN_MOTION_DDOT":0},{"OBJECT_NAME":"ONEWEB-0053","OBJECT_ID":"2020-008AC","EPOCH":"2026-01-23T13:54:27.224928","MEAN_MOTION":13.10371705,"ECCENTRICITY":0.00017506,"INCLINATION":87.876,"RA_OF_ASC_NODE":65.1114,"ARG_OF_PERICENTER":86.1398,"MEAN_ANOMALY":273.993,"EPHEMERIS_TYPE":0,"CLASSIFICATION_TYPE":"U","NORAD_CAT_ID":45157,"ELEMENT_SET_NO":999,"REV_AT_EPOCH":28897,"BSTAR":4.4100657e-5,"MEAN_MOTION_DOT":2.8e-7,"MEAN_MOTION_DDOT":0},{"OBJECT_NAME":"ONEWEB-0054","OBJECT_ID":"2020-008AD","EPOCH":"2026-01-23T12:54:39.851136","MEAN_MOTION":13.10377273,"ECCENTRICITY":0.0001901,"INCLINATION":87.8774,"RA_OF_ASC_NODE":65.0921,"ARG_OF_PERICENTER":98.0326,"MEAN_ANOMALY":262.1017,"EPHEMERIS_TYPE":0,"CLASSIFICATION_TYPE":"U","NORAD_CAT_ID":45158,"ELEMENT_SET_NO":999,"REV_AT_EPOCH":28908,"BSTAR":-0.00036493078,"MEAN_MOTION_DOT":-1.15e-6,"MEAN_MOTION_DDOT":0},{"OBJECT_NAME":"ONEWEB-0056","OBJECT_ID":"2020-008AE","EPOCH":"2026-01-23T12:27:10.076832","MEAN_MOTION":13.10371154,"ECCENTRICITY":0.00019974,"INCLINATION":87.8769,"RA_OF_ASC_NODE":65.0955,"ARG_OF_PERICENTER":101.5078,"MEAN_ANOMALY":258.6274,"EPHEMERIS_TYPE":0,"CLASSIFICATION_TYPE":"U","NORAD_CAT_ID":45159,"ELEMENT_SET_NO":999,"REV_AT_EPOCH":28923,"BSTAR":-0.0018300221,"MEAN_MOTION_DOT":-6.26e-6,"MEAN_MOTION_DDOT":0},{"OBJECT_NAME":"ONEWEB-0057","OBJECT_ID":"2020-008AF","EPOCH":"2026-01-23T12:38:08.169216","MEAN_MOTION":13.10374418,"ECCENTRICITY":0.00020233,"INCLINATION":87.8766,"RA_OF_ASC_NODE":65.1058,"ARG_OF_PERICENTER":93.1699,"MEAN_ANOMALY":266.966,"EPHEMERIS_TYPE":0,"CLASSIFICATION_TYPE":"U","NORAD_CAT_ID":45160,"ELEMENT_SET_NO":999,"REV_AT_EPOCH":28940,"BSTAR":-0.0016740576,"MEAN_MOTION_DOT":-5.72e-6,"MEAN_MOTION_DDOT":0}]
